CCSDS_OMM_VERS = 2.0
CREATION_DATE  = 
ORIGINATOR     = 

OBJECT_NAME    = ISS OBJECT XW
OBJECT_ID      = 1998-067XW
CENTER_NAME    = EARTH
REF_FRAME      = TEME
TIME_SYSTEM    = UTC
MEAN_ELEMENT_THEORY = SGP/SGP4

EPOCH          = 2026-02-17T08:17:46.569696
MEAN_MOTION    = 15.63452131
ECCENTRICITY   = .00028133
INCLINATION    = 51.6262
RA_OF_ASC_NODE = 168.8010
ARG_OF_PERICENTER = 346.6641
MEAN_ANOMALY   = 13.4279

EPHEMERIS_TYPE = 0
CLASSIFICATION_TYPE = U
NORAD_CAT_ID   = 66910
ELEMENT_SET_NO = 999
REV_AT_EPOCH   = 1199
BSTAR          = .11942624E-2
MEAN_MOTION_DOT = .113595E-2
MEAN_MOTION_DDOT = 0

CCSDS_OMM_VERS = 2.0
CREATION_DATE  = 
ORIGINATOR     = 

OBJECT_NAME    = ISS OBJECT XX
OBJECT_ID      = 1998-067XX
CENTER_NAME    = EARTH
REF_FRAME      = TEME
TIME_SYSTEM    = UTC
MEAN_ELEMENT_THEORY = SGP/SGP4

EPOCH          = 2026-02-17T12:55:29.422272
MEAN_MOTION    = 15.67071229
ECCENTRICITY   = .00045667
INCLINATION    = 51.6243
RA_OF_ASC_NODE = 167.0837
ARG_OF_PERICENTER = 339.0824
MEAN_ANOMALY   = 20.9985

EPHEMERIS_TYPE = 0
CLASSIFICATION_TYPE = U
NORAD_CAT_ID   = 66911
ELEMENT_SET_NO = 999
REV_AT_EPOCH   = 1202
BSTAR          = .13081529E-2
MEAN_MOTION_DOT = .144455E-2
MEAN_MOTION_DDOT = 0

CCSDS_OMM_VERS = 2.0
CREATION_DATE  = 
ORIGINATOR     = 

OBJECT_NAME    = ISS OBJECT XY
OBJECT_ID      = 1998-067XY
CENTER_NAME    = EARTH
REF_FRAME      = TEME
TIME_SYSTEM    = UTC
MEAN_ELEMENT_THEORY = SGP/SGP4

EPOCH          = 2026-02-17T13:17:12.063840
MEAN_MOTION    = 15.60143157
ECCENTRICITY   = .00009322
INCLINATION    = 51.6291
RA_OF_ASC_NODE = 168.6991
ARG_OF_PERICENTER = 354.2320
MEAN_ANOMALY   = 5.8663

EPHEMERIS_TYPE = 0
CLASSIFICATION_TYPE = U
NORAD_CAT_ID   = 66912
ELEMENT_SET_NO = 999
REV_AT_EPOCH   = 1200
BSTAR          = .81767452E-3
MEAN_MOTION_DOT = .67824E-3
MEAN_MOTION_DDOT = 0

CCSDS_OMM_VERS = 2.0
CREATION_DATE  = 
ORIGINATOR     = 

OBJECT_NAME    = ISS OBJECT XZ
OBJECT_ID      = 1998-067XZ
CENTER_NAME    = EARTH
REF_FRAME      = TEME
TIME_SYSTEM    = UTC
MEAN_ELEMENT_THEORY = SGP/SGP4

EPOCH          = 2026-02-17T13:26:20.764320
MEAN_MOTION    = 15.50177657
ECCENTRICITY   = .00104384
INCLINATION    = 51.6311
RA_OF_ASC_NODE = 171.7382
ARG_OF_PERICENTER = 120.3988
MEAN_ANOMALY   = 239.8034

EPHEMERIS_TYPE = 0
CLASSIFICATION_TYPE = U
NORAD_CAT_ID   = 67683
ELEMENT_SET_NO = 999
REV_AT_EPOCH   = 166
BSTAR          = .59632919E-3
MEAN_MOTION_DOT = .34002E-3
MEAN_MOTION_DDOT = 0

CCSDS_OMM_VERS = 2.0
CREATION_DATE  = 
ORIGINATOR     = 

OBJECT_NAME    = GXIBA-1
OBJECT_ID      = 1998-067YA
CENTER_NAME    = EARTH
REF_FRAME      = TEME
TIME_SYSTEM    = UTC
MEAN_ELEMENT_THEORY = SGP/SGP4

EPOCH          = 2026-02-17T13:18:50.345568
MEAN_MOTION    = 15.51206196
ECCENTRICITY   = .00120068
INCLINATION    = 51.6311
RA_OF_ASC_NODE = 171.7048
ARG_OF_PERICENTER = 113.2004
MEAN_ANOMALY   = 247.0252

EPHEMERIS_TYPE = 0
CLASSIFICATION_TYPE = U
NORAD_CAT_ID   = 67684
ELEMENT_SET_NO = 999
REV_AT_EPOCH   = 166
BSTAR          = .10040234E-2
MEAN_MOTION_DOT = .59962E-3
MEAN_MOTION_DDOT = 0

CCSDS_OMM_VERS = 2.0
CREATION_DATE  = 
ORIGINATOR     = 

OBJECT_NAME    = CORAL
OBJECT_ID      = 1998-067YB
CENTER_NAME    = EARTH
REF_FRAME      = TEME
TIME_SYSTEM    = UTC
MEAN_ELEMENT_THEORY = SGP/SGP4

EPOCH          = 2026-02-17T13:24:54.201888
MEAN_MOTION    = 15.50353125
ECCENTRICITY   = .00123329
INCLINATION    = 51.6309
RA_OF_ASC_NODE = 171.7324
ARG_OF_PERICENTER = 116.1515
MEAN_ANOMALY   = 244.0744

EPHEMERIS_TYPE = 0
CLASSIFICATION_TYPE = U
NORAD_CAT_ID   = 67685
ELEMENT_SET_NO = 999
REV_AT_EPOCH   = 166
BSTAR          = .6698999E-3
MEAN_MOTION_DOT = .3855E-3
MEAN_MOTION_DDOT = 0

CCSDS_OMM_VERS = 2.0
CREATION_DATE  = 
ORIGINATOR     = 

OBJECT_NAME    = ISS OBJECT YC
OBJECT_ID      = 1998-067YC
CENTER_NAME    = EARTH
REF_FRAME      = TEME
TIME_SYSTEM    = UTC
MEAN_ELEMENT_THEORY = SGP/SGP4

EPOCH          = 2026-02-17T13:23:32.568576
MEAN_MOTION    = 15.50561623
ECCENTRICITY   = .00077727
INCLINATION    = 51.6320
RA_OF_ASC_NODE = 171.7265
ARG_OF_PERICENTER = 88.8855
MEAN_ANOMALY   = 271.3025

EPHEMERIS_TYPE = 0
CLASSIFICATION_TYPE = U
NORAD_CAT_ID   = 67686
ELEMENT_SET_NO = 999
REV_AT_EPOCH   = 166
BSTAR          = .73145024E-3
MEAN_MOTION_DOT = .42395E-3
MEAN_MOTION_DDOT = 0

CCSDS_OMM_VERS = 2.0
CREATION_DATE  = 
ORIGINATOR     = 

OBJECT_NAME    = LEOPARD
OBJECT_ID      = 1998-067YD
CENTER_NAME    = EARTH
REF_FRAME      = TEME
TIME_SYSTEM    = UTC
MEAN_ELEMENT_THEORY = SGP/SGP4

EPOCH          = 2026-02-17T11:52:40.660320
MEAN_MOTION    = 15.50279822
ECCENTRICITY   = .00078442
INCLINATION    = 51.6314
RA_OF_ASC_NODE = 172.0549
ARG_OF_PERICENTER = 91.1853
MEAN_ANOMALY   = 269.0035

EPHEMERIS_TYPE = 0
CLASSIFICATION_TYPE = U
NORAD_CAT_ID   = 67687
ELEMENT_SET_NO = 999
REV_AT_EPOCH   = 157
BSTAR          = .76005041E-3
MEAN_MOTION_DOT = .43637E-3
MEAN_MOTION_DDOT = 0

CCSDS_OMM_VERS = 2.0
CREATION_DATE  = 
ORIGINATOR     = 

OBJECT_NAME    = ISS OBJECT YE
OBJECT_ID      = 1998-067YE
CENTER_NAME    = EARTH
REF_FRAME      = TEME
TIME_SYSTEM    = UTC
MEAN_ELEMENT_THEORY = SGP/SGP4

EPOCH          = 2026-02-17T13:24:03.854016
MEAN_MOTION    = 15.50467375
ECCENTRICITY   = .00077358
INCLINATION    = 51.6317
RA_OF_ASC_NODE = 171.7280
ARG_OF_PERICENTER = 90.1746
MEAN_ANOMALY   = 270.0129

EPHEMERIS_TYPE = 0
CLASSIFICATION_TYPE = U
NORAD_CAT_ID   = 67688
ELEMENT_SET_NO = 999
REV_AT_EPOCH   = 158
BSTAR          = .72976183E-3
MEAN_MOTION_DOT = .42152E-3
MEAN_MOTION_DDOT = 0

CCSDS_OMM_VERS = 2.0
CREATION_DATE  = 
ORIGINATOR     = 

OBJECT_NAME    = CREW DRAGON 12
OBJECT_ID      = 2026-031A
CENTER_NAME    = EARTH
REF_FRAME      = TEME
TIME_SYSTEM    = UTC
MEAN_ELEMENT_THEORY = SGP/SGP4

EPOCH          = 2026-02-17T13:40:51.309120
MEAN_MOTION    = 15.48664181
ECCENTRICITY   = .0011023
INCLINATION    = 51.6323
RA_OF_ASC_NODE = 171.8070
ARG_OF_PERICENTER = 108.2943
MEAN_ANOMALY   = 251.9246

EPHEMERIS_TYPE = 0
CLASSIFICATION_TYPE = U
NORAD_CAT_ID   = 67796
ELEMENT_SET_NO = 999
REV_AT_EPOCH   = 63
BSTAR          = .15503814E-3
MEAN_MOTION_DOT = .8013E-4
MEAN_MOTION_DDOT = 0

