ISS OBJECT XW           
1 66910U 98067XW  26048.34567789  .00113595  00000+0  11943-2 0  9994
2 66910  51.6262 168.8010 0002813 346.6641  13.4279 15.63452131 11991
ISS OBJECT XX           
1 66911U 98067XX  26048.53853498  .00144455  00000+0  13082-2 0  9996
2 66911  51.6243 167.0837 0004566 339.0824  20.9985 15.67071229 12026
ISS OBJECT XY           
1 66912U 98067XY  26048.55361185  .00067824  00000+0  81767-3 0  9996
2 66912  51.6291 168.6991 0000932 354.2320   5.8663 15.60143157 12007
ISS OBJECT XZ           
1 67683U 98067XZ  26048.55996255  .00034002  00000+0  59633-3 0  9993
2 67683  51.6311 171.7382 0010438 120.3988 239.8034 15.50177657  1661
GXIBA-1                 
1 67684U 98067YA  26048.55474937  .00059962  00000+0  10040-2 0  9992
2 67684  51.6311 171.7048 0012006 113.2004 247.0252 15.51206196  1669
CORAL                   
1 67685U 98067YB  26048.55896067  .00038550  00000+0  66990-3 0  9991
2 67685  51.6309 171.7324 0012332 116.1515 244.0744 15.50353125  1662
ISS OBJECT YC           
1 67686U 98067YC  26048.55801584  .00042395  00000+0  73145-3 0  9994
2 67686  51.6320 171.7265 0007772  88.8855 271.3025 15.50561623  1663
LEOPARD                 
1 67687U 98067YD  26048.49491505  .00043637  00000+0  76005-3 0  9994
2 67687  51.6314 172.0549 0007844  91.1853 269.0035 15.50279822  1573
ISS OBJECT YE           
1 67688U 98067YE  26048.55837794  .00042152  00000+0  72976-3 0  9990
2 67688  51.6317 171.7280 0007735  90.1746 270.0129 15.50467375  1583
CREW DRAGON 12          
1 67796U 26031A   26048.57003830  .00008013  00000+0  15504-3 0  9992
2 67796  51.6323 171.8070 0011023 108.2943 251.9246 15.48664181   637
